CCSDS_OMM_VERS = 2.0
CREATION_DATE  = 
ORIGINATOR     = 

OBJECT_NAME    = STARLINK-35628
OBJECT_ID      = 2025-237K
CENTER_NAME    = EARTH
REF_FRAME      = TEME
TIME_SYSTEM    = UTC
MEAN_ELEMENT_THEORY = SGP/SGP4

EPOCH          = 2025-11-03T22:00:03.000096
MEAN_MOTION    = 15.76471695
ECCENTRICITY   = .00010329
INCLINATION    = 53.1511
RA_OF_ASC_NODE = 272.4899
ARG_OF_PERICENTER = 118.1143
MEAN_ANOMALY   = 198.7763

EPHEMERIS_TYPE = 0
CLASSIFICATION_TYPE = U
NORAD_CAT_ID   = 66123
ELEMENT_SET_NO = 999
REV_AT_EPOCH   = 324
BSTAR          = -.11401259E-1
MEAN_MOTION_DOT = -.1639754E-1
MEAN_MOTION_DDOT = 0

CCSDS_OMM_VERS = 2.0
CREATION_DATE  = 
ORIGINATOR     = 

OBJECT_NAME    = STARLINK-35645
OBJECT_ID      = 2025-237L
CENTER_NAME    = EARTH
REF_FRAME      = TEME
TIME_SYSTEM    = UTC
MEAN_ELEMENT_THEORY = SGP/SGP4

EPOCH          = 2025-11-03T22:00:03.000096
MEAN_MOTION    = 15.76318709
ECCENTRICITY   = .00009221
INCLINATION    = 53.1513
RA_OF_ASC_NODE = 272.4852
ARG_OF_PERICENTER = 113.7430
MEAN_ANOMALY   = 205.3122

EPHEMERIS_TYPE = 0
CLASSIFICATION_TYPE = U
NORAD_CAT_ID   = 66124
ELEMENT_SET_NO = 999
REV_AT_EPOCH   = 324
BSTAR          = -.1059407E-1
MEAN_MOTION_DOT = -.1498779E-1
MEAN_MOTION_DDOT = 0

CCSDS_OMM_VERS = 2.0
CREATION_DATE  = 
ORIGINATOR     = 

OBJECT_NAME    = STARLINK-35649
OBJECT_ID      = 2025-237M
CENTER_NAME    = EARTH
REF_FRAME      = TEME
TIME_SYSTEM    = UTC
MEAN_ELEMENT_THEORY = SGP/SGP4

EPOCH          = 2025-11-03T22:00:03.000096
MEAN_MOTION    = 15.76281118
ECCENTRICITY   = .00010414
INCLINATION    = 53.1511
RA_OF_ASC_NODE = 272.4812
ARG_OF_PERICENTER = 128.0274
MEAN_ANOMALY   = 193.0786

EPHEMERIS_TYPE = 0
CLASSIFICATION_TYPE = U
NORAD_CAT_ID   = 66125
ELEMENT_SET_NO = 999
REV_AT_EPOCH   = 324
BSTAR          = -.11056747E-1
MEAN_MOTION_DOT = -.155373E-1
MEAN_MOTION_DDOT = 0

CCSDS_OMM_VERS = 2.0
CREATION_DATE  = 
ORIGINATOR     = 

OBJECT_NAME    = STARLINK-35658
OBJECT_ID      = 2025-237N
CENTER_NAME    = EARTH
REF_FRAME      = TEME
TIME_SYSTEM    = UTC
MEAN_ELEMENT_THEORY = SGP/SGP4

EPOCH          = 2025-11-03T22:00:03.000096
MEAN_MOTION    = 15.76268222
ECCENTRICITY   = .00010138
INCLINATION    = 53.1511
RA_OF_ASC_NODE = 272.4764
ARG_OF_PERICENTER = 116.0451
MEAN_ANOMALY   = 207.0239

EPHEMERIS_TYPE = 0
CLASSIFICATION_TYPE = U
NORAD_CAT_ID   = 66126
ELEMENT_SET_NO = 999
REV_AT_EPOCH   = 324
BSTAR          = -.11192533E-1
MEAN_MOTION_DOT = -.1569547E-1
MEAN_MOTION_DDOT = 0

CCSDS_OMM_VERS = 2.0
CREATION_DATE  = 
ORIGINATOR     = 

OBJECT_NAME    = STARLINK-35629
OBJECT_ID      = 2025-237P
CENTER_NAME    = EARTH
REF_FRAME      = TEME
TIME_SYSTEM    = UTC
MEAN_ELEMENT_THEORY = SGP/SGP4

EPOCH          = 2025-11-03T22:00:03.000096
MEAN_MOTION    = 15.76206618
ECCENTRICITY   = .0001032
INCLINATION    = 53.1516
RA_OF_ASC_NODE = 272.4724
ARG_OF_PERICENTER = 132.0452
MEAN_ANOMALY   = 193.0515

EPHEMERIS_TYPE = 0
CLASSIFICATION_TYPE = U
NORAD_CAT_ID   = 66127
ELEMENT_SET_NO = 999
REV_AT_EPOCH   = 324
BSTAR          = -.11003162E-1
MEAN_MOTION_DOT = -.1542661E-1
MEAN_MOTION_DDOT = 0

CCSDS_OMM_VERS = 2.0
CREATION_DATE  = 
ORIGINATOR     = 

OBJECT_NAME    = STARLINK-35612
OBJECT_ID      = 2025-237Q
CENTER_NAME    = EARTH
REF_FRAME      = TEME
TIME_SYSTEM    = UTC
MEAN_ELEMENT_THEORY = SGP/SGP4

EPOCH          = 2025-11-03T22:00:03.000096
MEAN_MOTION    = 15.76147406
ECCENTRICITY   = .00008748
INCLINATION    = 53.1514
RA_OF_ASC_NODE = 272.4679
ARG_OF_PERICENTER = 106.2351
MEAN_ANOMALY   = 220.9825

EPHEMERIS_TYPE = 0
CLASSIFICATION_TYPE = U
NORAD_CAT_ID   = 66128
ELEMENT_SET_NO = 999
REV_AT_EPOCH   = 324
BSTAR          = -.11784537E-1
MEAN_MOTION_DOT = -.1666945E-1
MEAN_MOTION_DDOT = 0

CCSDS_OMM_VERS = 2.0
CREATION_DATE  = 
ORIGINATOR     = 

OBJECT_NAME    = STARLINK-35632
OBJECT_ID      = 2025-237R
CENTER_NAME    = EARTH
REF_FRAME      = TEME
TIME_SYSTEM    = UTC
MEAN_ELEMENT_THEORY = SGP/SGP4

EPOCH          = 2025-11-03T22:00:03.000096
MEAN_MOTION    = 15.76031760
ECCENTRICITY   = .00008785
INCLINATION    = 53.1512
RA_OF_ASC_NODE = 272.4633
ARG_OF_PERICENTER = 101.4648
MEAN_ANOMALY   = 227.8814

EPHEMERIS_TYPE = 0
CLASSIFICATION_TYPE = U
NORAD_CAT_ID   = 66129
ELEMENT_SET_NO = 999
REV_AT_EPOCH   = 324
BSTAR          = -.11547986E-1
MEAN_MOTION_DOT = -.1629765E-1
MEAN_MOTION_DDOT = 0

CCSDS_OMM_VERS = 2.0
CREATION_DATE  = 
ORIGINATOR     = 

OBJECT_NAME    = STARLINK-35637
OBJECT_ID      = 2025-237S
CENTER_NAME    = EARTH
REF_FRAME      = TEME
TIME_SYSTEM    = UTC
MEAN_ELEMENT_THEORY = SGP/SGP4

EPOCH          = 2025-11-03T22:00:03.000096
MEAN_MOTION    = 15.75971621
ECCENTRICITY   = .00011902
INCLINATION    = 53.1514
RA_OF_ASC_NODE = 272.4591
ARG_OF_PERICENTER = 136.1829
MEAN_ANOMALY   = 195.2109

EPHEMERIS_TYPE = 0
CLASSIFICATION_TYPE = U
NORAD_CAT_ID   = 66130
ELEMENT_SET_NO = 999
REV_AT_EPOCH   = 324
BSTAR          = -.1186842E-1
MEAN_MOTION_DOT = -.1666087E-1
MEAN_MOTION_DDOT = 0

CCSDS_OMM_VERS = 2.0
CREATION_DATE  = 
ORIGINATOR     = 

OBJECT_NAME    = STARLINK-35630
OBJECT_ID      = 2025-237T
CENTER_NAME    = EARTH
REF_FRAME      = TEME
TIME_SYSTEM    = UTC
MEAN_ELEMENT_THEORY = SGP/SGP4

EPOCH          = 2025-11-03T22:00:03.000096
MEAN_MOTION    = 15.75887798
ECCENTRICITY   = .00012603
INCLINATION    = 53.1515
RA_OF_ASC_NODE = 272.4547
ARG_OF_PERICENTER = 121.6424
MEAN_ANOMALY   = 211.8121

EPHEMERIS_TYPE = 0
CLASSIFICATION_TYPE = U
NORAD_CAT_ID   = 66131
ELEMENT_SET_NO = 999
REV_AT_EPOCH   = 324
BSTAR          = -.1202911E-1
MEAN_MOTION_DOT = -.1680545E-1
MEAN_MOTION_DDOT = 0

CCSDS_OMM_VERS = 2.0
CREATION_DATE  = 
ORIGINATOR     = 

OBJECT_NAME    = STARLINK-34412
OBJECT_ID      = 2025-237U
CENTER_NAME    = EARTH
REF_FRAME      = TEME
TIME_SYSTEM    = UTC
MEAN_ELEMENT_THEORY = SGP/SGP4

EPOCH          = 2025-11-03T22:00:03.000096
MEAN_MOTION    = 15.75873917
ECCENTRICITY   = .00007609
INCLINATION    = 53.1516
RA_OF_ASC_NODE = 272.4507
ARG_OF_PERICENTER = 113.2096
MEAN_ANOMALY   = 222.2213

EPHEMERIS_TYPE = 0
CLASSIFICATION_TYPE = U
NORAD_CAT_ID   = 66132
ELEMENT_SET_NO = 999
REV_AT_EPOCH   = 315
BSTAR          = -.12499486E-1
MEAN_MOTION_DOT = -.1737106E-1
MEAN_MOTION_DDOT = 0

CCSDS_OMM_VERS = 2.0
CREATION_DATE  = 
ORIGINATOR     = 

OBJECT_NAME    = STARLINK-35520
OBJECT_ID      = 2025-237V
CENTER_NAME    = EARTH
REF_FRAME      = TEME
TIME_SYSTEM    = UTC
MEAN_ELEMENT_THEORY = SGP/SGP4

EPOCH          = 2025-11-03T22:00:03.000096
MEAN_MOTION    = 15.75775551
ECCENTRICITY   = .00006862
INCLINATION    = 53.1512
RA_OF_ASC_NODE = 272.4461
ARG_OF_PERICENTER = 108.0164
MEAN_ANOMALY   = 229.4544

EPHEMERIS_TYPE = 0
CLASSIFICATION_TYPE = U
NORAD_CAT_ID   = 66133
ELEMENT_SET_NO = 999
REV_AT_EPOCH   = 324
BSTAR          = -.12171015E-1
MEAN_MOTION_DOT = -.169021E-1
MEAN_MOTION_DDOT = 0

CCSDS_OMM_VERS = 2.0
CREATION_DATE  = 
ORIGINATOR     = 

OBJECT_NAME    = STARLINK-35525
OBJECT_ID      = 2025-237W
CENTER_NAME    = EARTH
REF_FRAME      = TEME
TIME_SYSTEM    = UTC
MEAN_ELEMENT_THEORY = SGP/SGP4

EPOCH          = 2025-11-03T22:00:03.000096
MEAN_MOTION    = 15.75675377
ECCENTRICITY   = .00009117
INCLINATION    = 53.1516
RA_OF_ASC_NODE = 272.4417
ARG_OF_PERICENTER = 105.2077
MEAN_ANOMALY   = 234.2919

EPHEMERIS_TYPE = 0
CLASSIFICATION_TYPE = U
NORAD_CAT_ID   = 66134
ELEMENT_SET_NO = 999
REV_AT_EPOCH   = 324
BSTAR          = -.11626407E-1
MEAN_MOTION_DOT = -.161673E-1
MEAN_MOTION_DDOT = 0

