STARLINK-35628          
1 66123U 25237K   25307.91670139 -.01639754  00000+0 -11401-1 0  9994
2 66123  53.1511 272.4899 0001032 118.1143 198.7763 15.76471695  3243
STARLINK-35645          
1 66124U 25237L   25307.91670139 -.01498779  00000+0 -10594-1 0  9997
2 66124  53.1513 272.4852 0000922 113.7430 205.3122 15.76318709  3242
STARLINK-35649          
1 66125U 25237M   25307.91670139 -.01553730  00000+0 -11057-1 0  9992
2 66125  53.1511 272.4812 0001041 128.0274 193.0786 15.76281118  3247
STARLINK-35658          
1 66126U 25237N   25307.91670139 -.01569547  00000+0 -11193-1 0  9997
2 66126  53.1511 272.4764 0001013 116.0451 207.0239 15.76268222  3247
STARLINK-35629          
1 66127U 25237P   25307.91670139 -.01542661  00000+0 -11003-1 0  9996
2 66127  53.1516 272.4724 0001032 132.0452 193.0515 15.76206618  3241
STARLINK-35612          
1 66128U 25237Q   25307.91670139 -.01666945  00000+0 -11785-1 0  9996
2 66128  53.1514 272.4679 0000874 106.2351 220.9825 15.76147406  3246
STARLINK-35632          
1 66129U 25237R   25307.91670139 -.01629765  00000+0 -11548-1 0  9993
2 66129  53.1512 272.4633 0000878 101.4648 227.8814 15.76031760  3244
STARLINK-35637          
1 66130U 25237S   25307.91670139 -.01666087  00000+0 -11868-1 0  9998
2 66130  53.1514 272.4591 0001190 136.1829 195.2109 15.75971621  3248
STARLINK-35630          
1 66131U 25237T   25307.91670139 -.01680545  00000+0 -12029-1 0  9994
2 66131  53.1515 272.4547 0001260 121.6424 211.8121 15.75887798  3249
STARLINK-34412          
1 66132U 25237U   25307.91670139 -.01737106  00000+0 -12499-1 0  9992
2 66132  53.1516 272.4507 0000760 113.2096 222.2213 15.75873917  3159
STARLINK-35520          
1 66133U 25237V   25307.91670139 -.01690210  00000+0 -12171-1 0  9994
2 66133  53.1512 272.4461 0000686 108.0164 229.4544 15.75775551  3241
STARLINK-35525          
1 66134U 25237W   25307.91670139 -.01616730  00000+0 -11626-1 0  9994
2 66134  53.1516 272.4417 0000911 105.2077 234.2919 15.75675377  3245
